NORAD_CAT_ID,OBJECT_NAME,OBJECT_TYPE,EPOCH,MEAN_MOTION,ECCENTRICITY,INCLINATION,RA_OF_ASC_NODE,ARG_OF_PERICENTER,MEAN_ANOMALY,BSTAR,MEAN_MOTION_DOT,MEAN_MOTION_DDOT,TLE_LINE0,TLE_LINE1,TLE_LINE2,SEMIMAJOR_AXIS,PERIOD,APOGEE,PERIGEE,DECAYED
54759.0,STARLINK-5215,PAYLOAD,2023-04-01 11:56:40,15.08819153,0.0001167,53.2179,176.8649,77.3702,282.742,0.0013107,0.00020621,0.0,0 STARLINK-5215,1 54759U 22175B   23091.49769097  .00020621  00000-0  13107-2 0  9998,2 54759  53.2179 176.8649 0001167  77.3702 282.7420 15.08819153 15812,6917.944,95.439,540.616,539.002,0.0
54759.0,STARLINK-5215,PAYLOAD,2023-04-02 11:47:27,15.08870917,0.0001224,53.2178,172.4059,78.9461,281.1669,0.0018331,0.00029031,0.0,0 STARLINK-5215,1 54759U 22175B   23092.49128937  .00029031  00000-0  18331-2 0  9999,2 54759  53.2178 172.4059 0001224  78.9461 281.1669 15.08870917 18121,6917.786,95.436,540.498,538.804,0.0
54759.0,STARLINK-5215,PAYLOAD,2023-04-02 14:58:13,15.08878938,0.0001236,53.2179,171.8111,78.9017,281.2114,0.0018676,0.00029592,0.0,0 STARLINK-5215,1 54759U 22175B   23092.62376623  .00029592  00000-0  18676-2 0  9995,2 54759  53.2179 171.8111 0001236  78.9017 281.2114 15.08878938 15982,6917.761,95.435,540.481,538.771,0.0
54759.0,STARLINK-5215,PAYLOAD,2023-04-02 16:33:36,15.08884091,0.0001238,53.2178,171.5139,77.7697,282.3433,0.0019211,0.00030456,0.0,0 STARLINK-5215,1 54759U 22175B   23092.69000423  .00030456  00000-0  19211-2 0  9991,2 54759  53.2178 171.5139 0001238  77.7697 282.3433 15.08884091 18156,6917.746,95.435,540.467,538.754,0.0
54759.0,STARLINK-5215,PAYLOAD,2023-04-03 11:38:14,15.08844557,0.0001259,53.2177,167.9469,62.9861,297.1259,0.0011672,0.00018339,0.0,0 STARLINK-5215,1 54759U 22175B   23093.48488856  .00018339  00000-0  11672-2 0  9998,2 54759  53.2177 167.9469 0001259  62.9861 297.1259 15.08844557 16119,6917.866,95.437,540.602,538.861,0.0
54759.0,STARLINK-5215,PAYLOAD,2023-04-03 16:24:23,15.08852858,0.0001282,53.2181,167.0544,89.792,270.3219,0.0013306,0.00020959,0.0,0 STARLINK-5215,1 54759U 22175B   23093.68360645  .00020959  00000-0  13306-2 0  9992,2 54759  53.2181 167.0544 0001282  89.7920 270.3219 15.08852858 18303,6917.841,95.437,540.593,538.819,0.0
54759.0,STARLINK-5215,PAYLOAD,2023-04-04 05:07:28,15.08848711,0.0001217,53.2181,164.676,91.7948,268.3184,0.0015733,0.00024846,0.0,0 STARLINK-5215,1 54759U 22175B   23094.21352772  .00024846  00000-0  15733-2 0  9999,2 54759  53.2181 164.6760 0001217  91.7948 268.3184 15.08848711 16227,6917.854,95.437,540.561,538.877,0.0
54759.0,STARLINK-5215,PAYLOAD,2023-04-04 11:29:01,15.08853467,0.0001408,53.2189,163.4867,111.4591,248.6551,0.0010307,0.0001616,0.0,0 STARLINK-5215,1 54759U 22175B   23094.47848482  .00016160  00000-0  10307-2 0  9997,2 54759  53.2189 163.4867 0001408 111.4591 248.6551 15.08853467 18423,6917.839,95.437,540.678,538.73,0.0
54759.0,STARLINK-5215,PAYLOAD,2023-04-04 16:15:10,15.08863226,0.0001173,53.2181,162.5935,101.2856,258.8268,0.0012349,0.00019433,0.0,0 STARLINK-5215,1 54759U 22175B   23094.67720215  .00019433  00000-0  12349-2 0  9996,2 54759  53.2181 162.5935 0001173 101.2856 258.8268 15.08863226 18456,6917.809,95.436,540.486,538.863,0.0
54759.0,STARLINK-5215,PAYLOAD,2023-04-05 11:19:48,15.08839726,0.0001217,53.2179,159.0266,84.932,275.1811,0.0010663,0.00016723,0.0,0 STARLINK-5215,1 54759U 22175B   23095.47208879  .00016723  00000-0  10663-2 0  9998,2 54759  53.2179 159.0266 0001217  84.9320 275.1811 15.08839726 18570,6917.881,95.438,540.588,538.904,0.0
54759.0,STARLINK-5215,PAYLOAD,2023-04-05 20:52:07,15.08838694,0.0001339,53.2182,157.2418,82.5377,277.5767,0.00045941,7.031e-05,0.0,0 STARLINK-5215,1 54759U 22175B   23095.86953045  .00007031  00000-0  45941-3 0  9993,2 54759  53.2182 157.2418 0001339  82.5377 277.5767 15.08838694 16470,6917.884,95.438,540.676,538.823,0.0
54759.0,STARLINK-5215,PAYLOAD,2023-04-06 14:21:21,15.08848628,0.0001359,53.2175,153.9714,85.2002,274.9145,0.00050381,7.741e-05,0.0,0 STARLINK-5215,1 54759U 22175B   23096.59816879  .00007741  00000-0  50381-3 0  9999,2 54759  53.2175 153.9714 0001359  85.2002 274.9145 15.08848628 18742,6917.854,95.437,540.659,538.779,0.0
54759.0,STARLINK-5215,PAYLOAD,2023-04-06 20:42:54,15.08837202,0.0001436,53.2171,152.7798,94.817,265.2986,0.00033747,5.087e-05,0.0,0 STARLINK-5215,1 54759U 22175B   23096.86313135  .00005087  00000-0  33747-3 0  9994,2 54759  53.2171 152.7798 0001436  94.8170 265.2986 15.08837202 16622,6917.889,95.438,540.747,538.761,0.0
54759.0,STARLINK-5215,PAYLOAD,2023-04-07 12:36:45,15.08842897,0.0001413,53.2171,149.8062,86.5196,273.5958,0.00016666,2.366e-05,0.0,0 STARLINK-5215,1 54759U 22175B   23097.52553061  .00002366  00000-0  16666-3 0  9990,2 54759  53.2171 149.8062 0001413  86.5196 273.5958 15.08842897 18881,6917.872,95.437,540.714,538.759,0.0
54759.0,STARLINK-5215,PAYLOAD,2023-04-08 02:55:14,15.08840728,0.0001372,53.217,147.131,84.7158,275.399,0.00013023,1.785e-05,0.0,0 STARLINK-5215,1 54759U 22175B   23098.12169138  .00001785  00000-0  13023-3 0  9993,2 54759  53.2170 147.1310 0001372  84.7158 275.3990 15.08840728 16817,6917.878,95.438,540.692,538.794,0.0
54759.0,STARLINK-5215,PAYLOAD,2023-04-08 09:16:46,15.08844325,0.000142,53.2167,145.942,87.4259,272.6896,0.00010912,1.449e-05,0.0,0 STARLINK-5215,1 54759U 22175B   23098.38664958  .00001449  00000-0  10912-3 0  9992,2 54759  53.2167 145.9420 0001420  87.4259 272.6896 15.08844325 19014,6917.867,95.437,540.715,538.75,0.0
54759.0,STARLINK-5215,PAYLOAD,2023-04-09 02:46:01,15.0883402,0.0001223,53.2174,142.6699,93.3997,266.7135,-3.7667e-05,-8.87e-06,0.0,0 STARLINK-5215,1 54759U 22175B   23099.11529280 -.00000887  00000-0 -37667-4 0  9996,2 54759  53.2174 142.6699 0001223  93.3997 266.7135 15.08834020 16962,6917.899,95.438,540.61,538.918,0.0
54759.0,STARLINK-5215,PAYLOAD,2023-04-09 09:07:33,15.08841155,0.0001349,53.2165,141.4815,87.086,273.0287,7.6707e-05,9.33e-06,0.0,0 STARLINK-5215,1 54759U 22175B   23099.38025097  .00000933  00000-0  76707-4 0  9990,2 54759  53.2165 141.4815 0001349  87.0860 273.0287 15.08841155 19168,6917.877,95.437,540.675,538.809,0.0
54759.0,STARLINK-5215,PAYLOAD,2023-04-09 13:53:43,15.08842977,0.0001512,53.2168,140.588,94.4321,265.6844,0.0001689,2.401e-05,0.0,0 STARLINK-5215,1 54759U 22175B   23099.57897046  .00002401  00000-0  16890-3 0  9990,2 54759  53.2168 140.5880 0001512  94.4321 265.6844 15.08842977 17032,6917.871,95.437,540.782,538.69,0.0
54759.0,STARLINK-5215,PAYLOAD,2023-04-10 07:22:57,15.08846222,0.0001519,53.2166,137.3178,87.9027,272.2139,0.00021276,3.1e-05,0.0,0 STARLINK-5215,1 54759U 22175B   23100.30761132  .00003100  00000-0  21276-3 0  9991,2 54759  53.2166 137.3178 0001519  87.9027 272.2139 15.08846222 19301,6917.861,95.437,540.777,538.676,0.0
54759.0,STARLINK-5215,PAYLOAD,2023-04-10 13:44:29,15.08851676,0.0001571,53.2168,136.1283,88.5256,271.5916,0.00032231,4.847e-05,0.0,0 STARLINK-5215,1 54759U 22175B   23100.57256915  .00004847  00000-0  32231-3 0  9990,2 54759  53.2168 136.1283 0001571  88.5256 271.5916 15.08851676 19344,6917.845,95.437,540.796,538.623,0.0
54759.0,STARLINK-5215,PAYLOAD,2023-04-11 11:59:53,15.08848405,0.0001378,53.2175,131.9662,95.2163,264.8986,0.000198,2.865e-05,0.0,0 STARLINK-5215,1 54759U 22175B   23101.49992734  .00002865  00000-0  19800-3 0  9993,2 54759  53.2175 131.9662 0001378  95.2163 264.8986 15.08848405 19486,6917.855,95.437,540.673,538.766,0.0
54759.0,STARLINK-5215,PAYLOAD,2023-04-12 05:29:08,15.0883642,0.000156,53.2182,128.6954,107.3821,252.7342,-3.7661e-05,-8.87e-06,0.0,0 STARLINK-5215,1 54759U 22175B   23102.22857332 -.00000887  00000-0 -37661-4 0  9999,2 54759  53.2182 128.6954 0001560 107.3821 252.7342 15.08836420 17439,6917.891,95.438,540.836,538.677,0.0
54759.0,STARLINK-5215,PAYLOAD,2023-04-12 07:04:31,15.0883565,0.0001356,53.2175,128.3982,101.2288,258.8856,-2.6599e-05,-7.11e-06,0.0,0 STARLINK-5215,1 54759U 22175B   23102.29481390 -.00000711  00000-0 -26599-4 0  9997,2 54759  53.2175 128.3982 0001356 101.2288 258.8856 15.08835650 19604,6917.894,95.438,540.697,538.821,0.0
54759.0,STARLINK-5215,PAYLOAD,2023-04-13 08:30:42,15.0883787,0.0001327,53.2194,123.6408,105.253,254.8609,2.8305e-05,1.63e-06,0.0,0 STARLINK-5215,1 54759U 22175B   23103.35465830  .00000163  00000-0  28305-4 0  9992,2 54759  53.2194 123.6408 0001327 105.2530 254.8609 15.08837870 19763,6917.887,95.438,540.67,538.834,0.0
54759.0,STARLINK-5215,PAYLOAD,2023-04-13 18:03:01,15.08840361,0.0001298,53.2193,121.8568,109.8854,250.2278,1.2626e-05,-8.7e-07,0.0,0 STARLINK-5215,1 54759U 22175B   23103.75209752 -.00000087  00000-0  12626-4 0  9990,2 54759  53.2193 121.8568 0001298 109.8854 250.2278 15.08840361 17663,6917.879,95.438,540.642,538.846,0.0
54759.0,STARLINK-5215,PAYLOAD,2023-04-14 11:32:15,15.08843092,0.0001313,53.2178,118.5853,100.7266,259.3874,0.00017641,2.521e-05,0.0,0 STARLINK-5215,1 54759U 22175B   23104.48073639  .00002521  00000-0  17641-3 0  9999,2 54759  53.2178 118.5853 0001313 100.7266 259.3874 15.08843092 19939,6917.871,95.437,540.644,538.828,0.0
54759.0,STARLINK-5215,PAYLOAD,2023-04-15 00:15:20,15.08842195,0.0001319,53.2177,116.2066,90.4569,269.6574,0.00016042,2.266e-05,0.0,0 STARLINK-5215,1 54759U 22175B   23105.01065768  .00002266  00000-0  16042-3 0  9993,2 54759  53.2177 116.2066 0001319  90.4569 269.6574 15.08842195 17859,6917.874,95.437,540.651,538.826,0.0
54759.0,STARLINK-5215,PAYLOAD,2023-04-15 08:12:16,15.08844636,0.0001371,53.2182,114.7195,88.7422,271.3727,0.00015188,2.13e-05,0.0,0 STARLINK-5215,1 54759U 22175B   23105.34185674  .00002130  00000-0  15188-3 0  9998,2 54759  53.2182 114.7195 0001371  88.7422 271.3727 15.08844636 20066,6917.866,95.437,540.68,538.783,0.0
54759.0,STARLINK-5215,PAYLOAD,2023-04-15 17:44:41,15.08732084,0.0002259,53.2184,112.9357,71.7193,288.4044,-0.0012995,-0.0002085,0.0,0 STARLINK-5215,1 54759U 22175B   23105.73937446 -.00020850  00000-0 -12995-2 0  9996,2 54759  53.2184 112.9357 0002259  71.7193 288.4044 15.08732084 20122,6918.21,95.444,541.638,538.512,0.0
